NORAD_CAT_ID,OBJECT_NAME,OBJECT_TYPE,EPOCH,MEAN_MOTION,ECCENTRICITY,INCLINATION,RA_OF_ASC_NODE,ARG_OF_PERICENTER,MEAN_ANOMALY,BSTAR,MEAN_MOTION_DOT,MEAN_MOTION_DDOT,TLE_LINE0,TLE_LINE1,TLE_LINE2,SEMIMAJOR_AXIS,PERIOD,APOGEE,PERIGEE,DECAYED
54087.0,STARLINK-5184,PAYLOAD,2024-03-19 02:13:58,15.08853149,0.0001593,53.2197,328.6397,80.9046,279.2126,5.6866e-06,-1.98e-06,0.0,0 STARLINK-5184,1 54087U 22136AN  24079.09303953 -.00000198  00000-0  56866-5 0  9997,2 54087  53.2197 328.6397 0001593  80.9046 279.2126 15.08853149 78206,6917.84,95.437,540.807,538.603,0.0
54087.0,STARLINK-5184,PAYLOAD,2024-03-19 22:53:58,15.08850559,0.0001504,53.2191,324.7727,88.8061,271.3103,9.0658e-05,1.156e-05,0.0,0 STARLINK-5184,1 54087U 22136AN  24079.95415488  .00001156  00000-0  90658-4 0  9999,2 54087  53.2191 324.7727 0001504  88.8061 271.3103 15.08850559 78806,6917.848,95.437,540.754,538.673,0.0
54087.0,STARLINK-5184,PAYLOAD,2024-03-20 21:09:23,15.08836039,0.0001521,53.2188,320.6087,116.1528,243.9621,-1.3239e-05,-4.99e-06,0.0,0 STARLINK-5184,1 54087U 22136AN  24080.88152727 -.00000499  00000-0 -13239-4 0  9998,2 54087  53.2188 320.6087 0001521 116.1528 243.9621 15.08836039 78940,6917.892,95.438,540.81,538.705,0.0
54087.0,STARLINK-5184,PAYLOAD,2024-03-20 22:44:47,15.08835892,0.0001264,53.2179,320.3147,100.6115,259.502,-3.1447e-05,-7.88e-06,0.0,0 STARLINK-5184,1 54087U 22136AN  24080.94776877 -.00000788  00000-0 -31447-4 0  9995,2 54087  53.2179 320.3147 0001264 100.6115 259.5020 15.08835892 78489,6917.893,95.438,540.632,538.884,0.0
54087.0,STARLINK-5184,PAYLOAD,2024-03-21 08:17:06,15.08838434,0.0001321,53.2184,318.5351,91.199,268.9154,-5.5105e-05,-1.165e-05,0.0,0 STARLINK-5184,1 54087U 22136AN  24081.34520898 -.00001165  00000-0 -55105-4 0  9997,2 54087  53.2184 318.5351 0001321  91.1990 268.9154 15.08838434 78544,6917.885,95.438,540.664,538.836,0.0
54087.0,STARLINK-5184,PAYLOAD,2024-03-21 22:35:33,15.08855786,0.0001181,53.2177,315.8588,104.853,255.2592,0.00010446,1.376e-05,0.0,0 STARLINK-5184,1 54087U 22136AN  24081.94135429  .00001376  00000-0  10446-3 0  9995,2 54087  53.2177 315.8588 0001181 104.8530 255.2592 15.08855786 78638,6917.832,95.437,540.514,538.88,0.0
54087.0,STARLINK-5184,PAYLOAD,2024-03-22 20:50:57,15.0883918,0.0001244,53.2175,311.6945,98.6546,261.4587,0.00018119,2.597e-05,0.0,0 STARLINK-5184,1 54087U 22136AN  24082.86872565  .00002597  00000-0  18119-3 0  9997,2 54087  53.2175 311.6945 0001244  98.6546 261.4587 15.08839180 79245,6917.883,95.438,540.608,538.887,0.0
54087.0,STARLINK-5184,PAYLOAD,2024-03-22 22:26:20,15.08840749,0.0001307,53.218,311.3986,103.0807,257.0331,0.00019555,2.826e-05,0.0,0 STARLINK-5184,1 54087U 22136AN  24082.93496418  .00002826  00000-0  19555-3 0  9994,2 54087  53.2180 311.3986 0001307 103.0807 257.0331 15.08840749 78783,6917.878,95.438,540.647,538.839,0.0
54087.0,STARLINK-5184,PAYLOAD,2024-03-23 20:41:45,15.08838047,0.0001492,53.2172,307.2383,88.2201,271.8962,-0.00012013,-2.199e-05,0.0,0 STARLINK-5184,1 54087U 22136AN  24083.86232972 -.00002199  00000-0 -12013-3 0  9997,2 54087  53.2172 307.2383 0001492  88.2201 271.8962 15.08838047 79396,6917.886,95.438,540.784,538.719,0.0
54087.0,STARLINK-5184,PAYLOAD,2024-03-23 22:17:08,15.08841583,0.0001509,53.2167,306.94,92.1573,267.9592,-6.9364e-05,-1.392e-05,0.0,0 STARLINK-5184,1 54087U 22136AN  24083.92856768 -.00001392  00000-0 -69364-4 0  9995,2 54087  53.2167 306.9400 0001509  92.1573 267.9592 15.08841583 78934,6917.876,95.437,540.784,538.697,0.0
54087.0,STARLINK-5184,PAYLOAD,2024-03-23 23:52:28,15.08896964,0.0001349,53.2175,306.6411,92.6969,267.4177,0.00080593,0.00012582,0.0,0 STARLINK-5184,1 54087U 22136AN  24083.99477799  .00012582  00000-0  80593-3 0  9992,2 54087  53.2175 306.6411 0001349  92.6969 267.4177 15.08896964 79419,6917.706,95.434,540.504,538.638,0.0
54087.0,STARLINK-5184,PAYLOAD,2024-03-24 07:49:23,15.08894656,0.0001324,53.2186,305.1518,103.0823,257.0317,0.00070885,0.00011028,0.0,0 STARLINK-5184,1 54087U 22136AN  24084.32597185  .00011028  00000-0  70885-3 0  9999,2 54087  53.2186 305.1518 0001324 103.0823 257.0317 15.08894656 79464,6917.713,95.434,540.494,538.662,0.0
54087.0,STARLINK-5184,PAYLOAD,2024-03-24 20:32:32,15.08830379,0.000143,53.2171,302.774,106.9833,253.1316,-0.00023962,-4.098e-05,0.0,0 STARLINK-5184,1 54087U 22136AN  24084.85592609 -.00004098  00000-0 -23962-3 0  9998,2 54087  53.2171 302.7740 0001430 106.9833 253.1316 15.08830379 79546,6917.91,95.438,540.764,538.786,0.0
54087.0,STARLINK-5184,PAYLOAD,2024-03-24 22:07:55,15.08830545,0.0001447,53.2171,302.4769,111.3249,248.7898,-0.00022727,-3.902e-05,0.0,0 STARLINK-5184,1 54087U 22136AN  24084.92216625 -.00003902  00000-0 -22727-3 0  9998,2 54087  53.2171 302.4769 0001447 111.3249 248.7898 15.08830545 79082,6917.909,95.438,540.775,538.773,0.0
54087.0,STARLINK-5184,PAYLOAD,2024-03-25 20:23:19,15.08830736,0.0001317,53.2159,298.3124,111.916,248.1972,-6.7906e-05,-1.368e-05,0.0,0 STARLINK-5184,1 54087U 22136AN  24085.84953624 -.00001368  00000-0 -67906-4 0  9990,2 54087  53.2159 298.3124 0001317 111.9160 248.1972 15.08830736 79225,6917.909,95.438,540.685,538.863,0.0
54087.0,STARLINK-5184,PAYLOAD,2024-03-26 13:52:34,15.08839599,0.0001342,53.2162,295.0414,97.4993,262.6152,-1.2297e-05,-4.84e-06,0.0,0 STARLINK-5184,1 54087U 22136AN  24086.57817611 -.00000484  00000-0 -12297-4 0  9997,2 54087  53.2162 295.0414 0001342  97.4993 262.6152 15.08839599 79806,6917.882,95.438,540.675,538.818,0.0
54087.0,STARLINK-5184,PAYLOAD,2024-03-26 20:14:07,15.08843091,0.0001277,53.2152,293.8534,87.5713,272.5425,0.00071465,0.00011105,0.0,0 STARLINK-5184,1 54087U 22136AN  24086.84314351  .00011105  00000-0  71465-3 0  9991,2 54087  53.2152 293.8534 0001277  87.5713 272.5425 15.08843091 79378,6917.871,95.437,540.619,538.853,0.0
54087.0,STARLINK-5184,PAYLOAD,2024-03-27 07:21:49,15.08848983,0.0001388,53.2155,291.7725,91.3865,268.7286,0.00039225,5.962e-05,0.0,0 STARLINK-5184,1 54087U 22136AN  24087.30682199  .00005962  00000-0  39225-3 0  9993,2 54087  53.2155 291.7725 0001388  91.3865 268.7286 15.08848983 79449,6917.853,95.437,540.678,538.758,0.0
54087.0,STARLINK-5184,PAYLOAD,2024-03-27 20:04:54,15.08853531,0.0001361,53.2167,289.3943,91.4048,268.71,0.00049485,7.599e-05,0.0,0 STARLINK-5184,1 54087U 22136AN  24087.83673925  .00007599  00000-0  49485-3 0  9995,2 54087  53.2167 289.3943 0001361  91.4048 268.7100 15.08853531 79992,6917.839,95.437,540.646,538.763,0.0
54087.0,STARLINK-5184,PAYLOAD,2024-03-28 13:34:08,15.08848658,0.0001322,53.2158,286.1209,90.16,269.9543,0.00051617,7.938e-05,0.0,0 STARLINK-5184,1 54087U 22136AN  24088.56537960  .00007938  00000-0  51617-3 0  9991,2 54087  53.2158 286.1209 0001322  90.1600 269.9543 15.08848658 80102,6917.854,95.437,540.633,538.804,0.0
54087.0,STARLINK-5184,PAYLOAD,2024-03-28 19:55:41,15.08849434,0.0001275,53.216,284.9312,87.7967,272.3171,0.00042817,6.535e-05,0.0,0 STARLINK-5184,1 54087U 22136AN  24088.83033846  .00006535  00000-0  42817-3 0  9999,2 54087  53.2160 284.9312 0001275  87.7967 272.3171 15.08849434 79679,6917.852,95.437,540.599,538.835,0.0
54087.0,STARLINK-5184,PAYLOAD,2024-03-29 13:24:55,15.08844746,0.0001621,53.2167,281.6616,91.7021,268.4157,0.00020305,2.945e-05,0.0,0 STARLINK-5184,1 54087U 22136AN  24089.55897867  .00002945  00000-0  20305-3 0  9999,2 54087  53.2167 281.6616 0001621  91.7021 268.4157 15.08844746 80255,6917.866,95.437,540.852,538.609,0.0
54087.0,STARLINK-5184,PAYLOAD,2024-03-29 19:46:28,15.08850469,0.0001651,53.2155,280.4731,93.4832,266.6349,0.00026385,3.915e-05,0.0,0 STARLINK-5184,1 54087U 22136AN  24089.82393571  .00003915  00000-0  26385-3 0  9994,2 54087  53.2155 280.4731 0001651  93.4832 266.6349 15.08850469 79822,6917.848,95.437,540.856,538.571,0.0
54087.0,STARLINK-5184,PAYLOAD,2024-03-30 05:18:46,15.08848522,8.73e-05,53.2162,278.6879,68.1011,292.0074,0.00029299,4.379e-05,0.0,0 STARLINK-5184,1 54087U 22136AN  24090.22137478  .00004379  00000-0  29299-3 0  9994,2 54087  53.2162 278.6879 0000873  68.1011 292.0074 15.08848522 79886,6917.854,95.437,540.323,539.115,0.0
54087.0,STARLINK-5184,PAYLOAD,2024-03-30 19:37:15,15.0883896,0.000134,53.2111,276.0112,83.4994,276.6151,2.5491e-05,1.18e-06,0.0,0 STARLINK-5184,1 54087U 22136AN  24090.81753830  .00000118  00000-0  25491-4 0  9993,2 54087  53.2111 276.0112 0001340  83.4994 276.6151 15.08838960 80445,6917.884,95.438,540.676,538.822,0.0
54087.0,STARLINK-5184,PAYLOAD,2024-03-30 21:12:38,15.08841192,0.0001374,53.2114,275.714,84.5091,275.6058,9.0556e-05,1.154e-05,0.0,0 STARLINK-5184,1 54087U 22136AN  24090.88377877  .00001154  00000-0  90556-4 0  9998,2 54087  53.2114 275.7140 0001374  84.5091 275.6058 15.08841192 79985,6917.877,95.437,540.692,538.791,0.0
54087.0,STARLINK-5184,PAYLOAD,2024-03-31 11:31:06,15.0884471,0.0001397,53.2126,273.0384,87.8352,272.28,0.00013779,1.906e-05,0.0,0 STARLINK-5184,1 54087U 22136AN  24091.47993717  .00001906  00000-0  13779-3 0  9997,2 54087  53.2126 273.0384 0001397  87.8352 272.2800 15.08844710 80079,6917.866,95.437,540.697,538.765,0.0
54087.0,STARLINK-5184,PAYLOAD,2024-03-31 19:28:01,15.08853725,0.0001375,53.2168,271.553,87.564,272.5509,-9.1067e-06,-4.33e-06,0.0,0 STARLINK-5184,1 54087U 22136AN  24091.81113085 -.00000433  00000-0 -91067-5 0  9991,2 54087  53.2168 271.5530 0001375  87.5640 272.5509 15.08853725 80596,6917.838,95.437,540.655,538.752,0.0
54087.0,STARLINK-5184,PAYLOAD,2024-04-01 05:00:17,15.08899369,0.0001053,53.216,269.7685,124.2757,235.8335,0.00081499,0.00012727,0.0,0 STARLINK-5184,1 54087U 22136AN  24092.20853625  .00012727  00000-0  81499-3 0  9999,2 54087  53.2160 269.7685 0001053 124.2757 235.8335 15.08899369 80659,6917.699,95.434,540.292,538.835,0.0
54087.0,STARLINK-5184,PAYLOAD,2024-04-01 11:21:49,15.08905815,0.000283,53.2167,268.5791,95.6642,264.4673,0.00086403,0.00013515,0.0,0 STARLINK-5184,1 54087U 22136AN  24092.47349259  .00013515  00000-0  86403-3 0  9997,2 54087  53.2167 268.5791 0002830  95.6642 264.4673 15.08905815 80229,6917.679,95.433,541.502,537.587,0.0
